GLOBALSTAR M023         
1 25621U 99004A   24219.67768150 -.00000120  00000+0 -91047-4 0  9995
2 25621  52.0110 291.1109 0010514 152.3900   9.8421 12.62463670176006
GLOBALSTAR M040         
1 25622U 99004B   24219.60527454 -.00000051  00000+0  29617-3 0  9994
2 25622  51.9920 295.0184 0001108  91.6449  51.3485 12.61978292175531
GLOBALSTAR M036         
1 25623U 99004C   24219.77678727 -.00000005  00000+0  11291-2 0  9990
2 25623  51.9996 349.0223 0011467 163.8072   4.5208 11.86573481141658
GLOBALSTAR M038         
1 25624U 99004D   24219.53384889 -.00000058  00000+0  30618-3 0  9991
2 25624  51.9954 257.7240 0002044 123.6224 348.8428 12.32504467163574
GLOBALSTAR M022         
1 25649U 99012A   24219.87995221 -.00000060  00000+0  32267-3 0  9997
2 25649  52.0044  65.3227 0001649 273.0473 188.3647 12.02485813138568
GLOBALSTAR M041         
1 25650U 99012B   24219.56969053 -.00000007  00000+0  10132-2 0  9996
2 25650  52.0027 298.0277 0002870  73.1129 287.0022 11.96658015140863
GLOBALSTAR M046         
1 25651U 99012C   24219.77720942  .00000031  00000+0  13228-2 0  9997
2 25651  52.0069  27.2127 0002171   8.5397   4.4960 12.09395126145626
GLOBALSTAR M037         
1 25652U 99012D   24219.86687183 -.00000101  00000+0  17038-4 0  9991
2 25652  52.0007  61.2661 0001415 184.8358 279.7039 12.62413343171573
